0 COSMOS 2251 DEB
1 37543U 93036BNY 13281.73240355  .00004413  00000-0  53109-3 0  2050
2 37543 073.9825 305.4338 0127959 130.9380 230.2933 14.78477730205211
0 COSMOS 2251 DEB
1 37543U 93036BNY 13283.69469981  .00004405  00000-0  53082-3 0  2067
2 37543 073.9805 301.5687 0127204 126.1364 235.1616 14.78495667205508
0 COSMOS 2251 DEB
1 37543U 93036BNY 13285.38631457  .00004744  00000-0  57191-3 0  2076
2 37543 073.9805 298.2293 0126446 122.4531 238.9541 14.78515642205756
0 COSMOS 2251 DEB
1 37543U 93036BNY 13285.72462283  .00005127  00000-0  61616-3 0  2087
2 37543 073.9804 297.5573 0127471 122.0226 239.3722 14.78522260205800
0 COSMOS 2251 DEB
1 37543U 93036BNY 13287.34853345  .00005493  00000-0  66048-3 0  2091
2 37543 073.9802 294.3560 0126711 118.4055 243.0203 14.78542936206049
0 COSMOS 2251 DEB
1 37543U 93036BNY 13288.43112703  .00005940  00000-0  71345-3 0  2103
2 37543 073.9788 292.2238 0126765 115.8027 245.6449 14.78558989206203
0 COSMOS 2251 DEB
1 37543U 93036BNY 13289.64903204  .00006097  00000-0  73273-3 0  2118
2 37543 073.9777 289.8231 0126227 112.6885 248.7786 14.78575532206386
0 COSMOS 2251 DEB
1 37543U 93036BNY 13290.66394244  .00006264  00000-0  75272-3 0  2128
2 37543 073.9743 287.8213 0125976 110.1622 251.3272 14.78589889206536
0 COSMOS 2251 DEB
1 37543U 93036BNY 13292.28777844  .00006890  00000-0  82691-3 0  2138
2 37543 073.9803 284.6116 0125962 107.4964 254.0758 14.78616798206778
0 COSMOS 2251 DEB
1 37543U 93036BNY 13293.64093813  .00007054  00000-0  84526-3 0  2149
2 37543 073.9802 281.9434 0126389 104.5474 256.9854 14.78637449206974
0 COSMOS 2251 DEB
1 37543U 93036BNY 13295.26471835  .00007273  00000-0  87068-3 0  2151
2 37543 073.9810 278.7424 0126443 100.6501 260.8921 14.78662626207217
